<?xml version="1.0" encoding="UTF-8"?>
<ndm xmlns:xsi="http://www.w3.org/2001/XMLSchema-instance" xsi:noNamespaceSchemaLocation="https://sanaregistry.org/r/ndmxml_unqualified/ndmxml-2.0.0-master-2.0.xsd">
<omm id="CCSDS_OMM_VERS" version="2.0">
<header><CREATION_DATE/><ORIGINATOR/></header><body><segment><metadata><OBJECT_NAME>ORBCOMM FM24</OBJECT_NAME><OBJECT_ID>1998-053D</OBJECT_ID><CENTER_NAME>EARTH</CENTER_NAME><REF_FRAME>TEME</REF_FRAME><TIME_SYSTEM>UTC</TIME_SYSTEM><MEAN_ELEMENT_THEORY>SGP4</MEAN_ELEMENT_THEORY></metadata><data><meanElements><EPOCH>2024-08-20T11:32:01.768128</EPOCH><MEAN_MOTION>14.36172720</MEAN_MOTION><ECCENTRICITY>.0001974</ECCENTRICITY><INCLINATION>45.0063</INCLINATION><RA_OF_ASC_NODE>253.0524</RA_OF_ASC_NODE><ARG_OF_PERICENTER>252.5458</ARG_OF_PERICENTER><MEAN_ANOMALY>107.5174</MEAN_ANOMALY></meanElements><tleParameters><EPHEMERIS_TYPE>0</EPHEMERIS_TYPE><CLASSIFICATION_TYPE>U</CLASSIFICATION_TYPE><NORAD_CAT_ID>25478</NORAD_CAT_ID><ELEMENT_SET_NO>999</ELEMENT_SET_NO><REV_AT_EPOCH>35418</REV_AT_EPOCH><BSTAR>.11898E-2</BSTAR><MEAN_MOTION_DOT>.3361E-4</MEAN_MOTION_DOT><MEAN_MOTION_DDOT>0</MEAN_MOTION_DDOT></tleParameters></data></segment></body></omm>
<omm id="CCSDS_OMM_VERS" version="2.0">
<header><CREATION_DATE/><ORIGINATOR/></header><body><segment><metadata><OBJECT_NAME>ORBCOMM FM25</OBJECT_NAME><OBJECT_ID>1998-053E</OBJECT_ID><CENTER_NAME>EARTH</CENTER_NAME><REF_FRAME>TEME</REF_FRAME><TIME_SYSTEM>UTC</TIME_SYSTEM><MEAN_ELEMENT_THEORY>SGP4</MEAN_ELEMENT_THEORY></metadata><data><meanElements><EPOCH>2024-08-20T10:45:19.031616</EPOCH><MEAN_MOTION>14.36162738</MEAN_MOTION><ECCENTRICITY>.0003802</ECCENTRICITY><INCLINATION>45.0055</INCLINATION><RA_OF_ASC_NODE>251.4555</RA_OF_ASC_NODE><ARG_OF_PERICENTER>216.0525</ARG_OF_PERICENTER><MEAN_ANOMALY>144.0066</MEAN_ANOMALY></meanElements><tleParameters><EPHEMERIS_TYPE>0</EPHEMERIS_TYPE><CLASSIFICATION_TYPE>U</CLASSIFICATION_TYPE><NORAD_CAT_ID>25479</NORAD_CAT_ID><ELEMENT_SET_NO>999</ELEMENT_SET_NO><REV_AT_EPOCH>35447</REV_AT_EPOCH><BSTAR>.12966E-2</BSTAR><MEAN_MOTION_DOT>.3675E-4</MEAN_MOTION_DOT><MEAN_MOTION_DDOT>0</MEAN_MOTION_DDOT></tleParameters></data></segment></body></omm>
<omm id="CCSDS_OMM_VERS" version="2.0">
<header><CREATION_DATE/><ORIGINATOR/></header><body><segment><metadata><OBJECT_NAME>ORBCOMM FM26</OBJECT_NAME><OBJECT_ID>1998-053F</OBJECT_ID><CENTER_NAME>EARTH</CENTER_NAME><REF_FRAME>TEME</REF_FRAME><TIME_SYSTEM>UTC</TIME_SYSTEM><MEAN_ELEMENT_THEORY>SGP4</MEAN_ELEMENT_THEORY></metadata><data><meanElements><EPOCH>2024-08-20T11:55:03.820800</EPOCH><MEAN_MOTION>14.35522656</MEAN_MOTION><ECCENTRICITY>.0006333</ECCENTRICITY><INCLINATION>45.0052</INCLINATION><RA_OF_ASC_NODE>245.8023</RA_OF_ASC_NODE><ARG_OF_PERICENTER>222.3507</ARG_OF_PERICENTER><MEAN_ANOMALY>137.6852</MEAN_ANOMALY></meanElements><tleParameters><EPHEMERIS_TYPE>0</EPHEMERIS_TYPE><CLASSIFICATION_TYPE>U</CLASSIFICATION_TYPE><NORAD_CAT_ID>25480</NORAD_CAT_ID><ELEMENT_SET_NO>999</ELEMENT_SET_NO><REV_AT_EPOCH>35441</REV_AT_EPOCH><BSTAR>.10392E-2</BSTAR><MEAN_MOTION_DOT>.2878E-4</MEAN_MOTION_DOT><MEAN_MOTION_DDOT>0</MEAN_MOTION_DDOT></tleParameters></data></segment></body></omm>
<omm id="CCSDS_OMM_VERS" version="2.0">
<header><CREATION_DATE/><ORIGINATOR/></header><body><segment><metadata><OBJECT_NAME>ORBCOMM FM27</OBJECT_NAME><OBJECT_ID>1998-053G</OBJECT_ID><CENTER_NAME>EARTH</CENTER_NAME><REF_FRAME>TEME</REF_FRAME><TIME_SYSTEM>UTC</TIME_SYSTEM><MEAN_ELEMENT_THEORY>SGP4</MEAN_ELEMENT_THEORY></metadata><data><meanElements><EPOCH>2024-08-20T12:09:39.145248</EPOCH><MEAN_MOTION>14.36147284</MEAN_MOTION><ECCENTRICITY>.0002641</ECCENTRICITY><INCLINATION>45.0038</INCLINATION><RA_OF_ASC_NODE>251.4390</RA_OF_ASC_NODE><ARG_OF_PERICENTER>289.5414</ARG_OF_PERICENTER><MEAN_ANOMALY>70.5148</MEAN_ANOMALY></meanElements><tleParameters><EPHEMERIS_TYPE>0</EPHEMERIS_TYPE><CLASSIFICATION_TYPE>U</CLASSIFICATION_TYPE><NORAD_CAT_ID>25481</NORAD_CAT_ID><ELEMENT_SET_NO>999</ELEMENT_SET_NO><REV_AT_EPOCH>35441</REV_AT_EPOCH><BSTAR>.11628E-2</BSTAR><MEAN_MOTION_DOT>.3279E-4</MEAN_MOTION_DOT><MEAN_MOTION_DDOT>0</MEAN_MOTION_DDOT></tleParameters></data></segment></body></omm>
<omm id="CCSDS_OMM_VERS" version="2.0">
<header><CREATION_DATE/><ORIGINATOR/></header><body><segment><metadata><OBJECT_NAME>ORBCOMM FM28</OBJECT_NAME><OBJECT_ID>1998-053H</OBJECT_ID><CENTER_NAME>EARTH</CENTER_NAME><REF_FRAME>TEME</REF_FRAME><TIME_SYSTEM>UTC</TIME_SYSTEM><MEAN_ELEMENT_THEORY>SGP4</MEAN_ELEMENT_THEORY></metadata><data><meanElements><EPOCH>2024-08-20T09:27:16.379712</EPOCH><MEAN_MOTION>14.36543104</MEAN_MOTION><ECCENTRICITY>.0004346</ECCENTRICITY><INCLINATION>45.0044</INCLINATION><RA_OF_ASC_NODE>190.1100</RA_OF_ASC_NODE><ARG_OF_PERICENTER>257.1187</ARG_OF_PERICENTER><MEAN_ANOMALY>102.9175</MEAN_ANOMALY></meanElements><tleParameters><EPHEMERIS_TYPE>0</EPHEMERIS_TYPE><CLASSIFICATION_TYPE>U</CLASSIFICATION_TYPE><NORAD_CAT_ID>25482</NORAD_CAT_ID><ELEMENT_SET_NO>999</ELEMENT_SET_NO><REV_AT_EPOCH>35507</REV_AT_EPOCH><BSTAR>.12851E-2</BSTAR><MEAN_MOTION_DOT>.367E-4</MEAN_MOTION_DOT><MEAN_MOTION_DDOT>0</MEAN_MOTION_DDOT></tleParameters></data></segment></body></omm>
<omm id="CCSDS_OMM_VERS" version="2.0">
<header><CREATION_DATE/><ORIGINATOR/></header><body><segment><metadata><OBJECT_NAME>ORBCOMM FM30</OBJECT_NAME><OBJECT_ID>1999-065A</OBJECT_ID><CENTER_NAME>EARTH</CENTER_NAME><REF_FRAME>TEME</REF_FRAME><TIME_SYSTEM>UTC</TIME_SYSTEM><MEAN_ELEMENT_THEORY>SGP4</MEAN_ELEMENT_THEORY></metadata><data><meanElements><EPOCH>2024-08-20T14:06:56.442528</EPOCH><MEAN_MOTION>14.35664479</MEAN_MOTION><ECCENTRICITY>.0005526</ECCENTRICITY><INCLINATION>45.0317</INCLINATION><RA_OF_ASC_NODE>70.9988</RA_OF_ASC_NODE><ARG_OF_PERICENTER>299.2348</ARG_OF_PERICENTER><MEAN_ANOMALY>60.7947</MEAN_ANOMALY></meanElements><tleParameters><EPHEMERIS_TYPE>0</EPHEMERIS_TYPE><CLASSIFICATION_TYPE>U</CLASSIFICATION_TYPE><NORAD_CAT_ID>25980</NORAD_CAT_ID><ELEMENT_SET_NO>999</ELEMENT_SET_NO><REV_AT_EPOCH>29122</REV_AT_EPOCH><BSTAR>.11231E-2</BSTAR><MEAN_MOTION_DOT>.3131E-4</MEAN_MOTION_DOT><MEAN_MOTION_DDOT>0</MEAN_MOTION_DDOT></tleParameters></data></segment></body></omm>

</ndm>
