ORBCOMM FM24            
1 25478U 98053D   24233.48057602  .00003361  00000+0  11898-2 0  9998
2 25478  45.0063 253.0524 0001974 252.5458 107.5174 14.36172720354188
ORBCOMM FM25            
1 25479U 98053E   24233.44813694  .00003675  00000+0  12966-2 0  9991
2 25479  45.0055 251.4555 0003802 216.0525 144.0066 14.36162738354474
ORBCOMM FM26            
1 25480U 98053F   24233.49657200  .00002878  00000+0  10392-2 0  9992
2 25480  45.0052 245.8023 0006333 222.3507 137.6852 14.35522656354415
ORBCOMM FM27            
1 25481U 98053G   24233.50670307  .00003279  00000+0  11628-2 0  9997
2 25481  45.0038 251.4390 0002641 289.5414  70.5148 14.36147284354414
ORBCOMM FM28            
1 25482U 98053H   24233.39393958  .00003670  00000+0  12851-2 0  9993
2 25482  45.0044 190.1100 0004346 257.1187 102.9175 14.36543104355076
ORBCOMM FM30            
1 25980U 99065A   24233.58815327  .00003131  00000+0  11231-2 0  9993
2 25980  45.0317  70.9988 0005526 299.2348  60.7947 14.35664479291220
